0 COSMOS 2251 DEB
1 36480U 93036BCF 13279.88024588  .00007348  00000-0  17986-2 0  2850
2 36480 074.0213 113.8481 0009561 155.8142 204.3109 14.52627383202018
0 COSMOS 2251 DEB
1 36480U 93036BCF 13281.88960799  .00019772  00000-0  48145-2 0  2862
2 36480 074.0242 110.0524 0010033 152.7795 271.0620 14.52666146202304
0 COSMOS 2251 DEB
1 36480U 93036BCF 13283.88699340  .00016724  00000-0  40697-2 0  2874
2 36480 074.0242 106.2824 0009960 148.4426 276.9379 14.52730862202597
0 COSMOS 2251 DEB
1 36480U 93036BCF 13290.16451586  .00021378  00000-0  51759-2 0  2884
2 36480 074.0235 094.4308 0009407 135.8538 348.6033 14.52921927203504
0 COSMOS 2251 DEB
1 36480U 93036BCF 13292.76859031  .00020613  00000-0  49811-2 0  2897
2 36480 074.0238 089.5137 0009170 129.6995 290.3915 14.53021951203889
0 COSMOS 2251 DEB
1 36480U 93036BCF 13293.12455096  .00019740  00000-0  47701-2 0  2908
2 36480 074.0261 088.8407 0008880 126.9991 354.3284 14.53033553203937
